[{"OBJECT_NAME":"STARLINK-3457","OBJECT_ID":"2022-016AS","EPOCH":"2026-03-09T22:23:05.298144","MEAN_MOTION":15.08835783,"ECCENTRICITY":0.00013516,"INCLINATION":53.2177,"RA_OF_ASC_NODE":307.7882,"ARG_OF_PERICENTER":98.3855,"MEAN_ANOMALY":261.7291,"EPHEMERIS_TYPE":0,"CLASSIFICATION_TYPE":"U","NORAD_CAT_ID":51754,"ELEMENT_SET_NO":999,"REV_AT_EPOCH":22374,"BSTAR":-1.4664417e-5,"MEAN_MOTION_DOT":-5.21e-6,"MEAN_MOTION_DDOT":0},{"OBJECT_NAME":"OBJECT J","OBJECT_ID":"2025-292J","EPOCH":"2026-03-09T21:49:22.925568","MEAN_MOTION":15.05538385,"ECCENTRICITY":0.00147146,"INCLINATION":97.6397,"RA_OF_ASC_NODE":145.6338,"ARG_OF_PERICENTER":337.2811,"MEAN_ANOMALY":22.7762,"EPHEMERIS_TYPE":0,"CLASSIFICATION_TYPE":"U","NORAD_CAT_ID":67001,"ELEMENT_SET_NO":999,"REV_AT_EPOCH":1350,"BSTAR":0.00042553792,"MEAN_MOTION_DOT":6.079e-5,"MEAN_MOTION_DDOT":0}]
